NORAD_CAT_ID,OBJECT_NAME,OBJECT_TYPE,EPOCH,MEAN_MOTION,ECCENTRICITY,INCLINATION,RA_OF_ASC_NODE,ARG_OF_PERICENTER,MEAN_ANOMALY,BSTAR,MEAN_MOTION_DOT,MEAN_MOTION_DDOT,TLE_LINE0,TLE_LINE1,TLE_LINE2,SEMIMAJOR_AXIS,PERIOD,APOGEE,PERIGEE,DECAYED
55273.0,STARLINK-5291,PAYLOAD,2023-12-23 21:15:24,14.98326957,0.0002098,69.9998,278.7304,247.4908,112.6029,0.00010227,1.127e-05,0.0,0 STARLINK-5291,1 55273U 23010E   23357.88569874  .00001127  00000-0  10227-3 0  9999,2 55273  69.9998 278.7304 0002098 247.4908 112.6029 14.98326957 51931,6950.202,96.107,573.525,570.609,0.0
55273.0,STARLINK-5291,PAYLOAD,2023-12-24 05:16:04,14.98331804,0.0001948,69.9998,277.8877,251.5621,108.5327,0.00015647,1.775e-05,0.0,0 STARLINK-5291,1 55273U 23010E   23358.21949483  .00001775  00000-0  15647-3 0  9995,2 55273  69.9998 277.8877 0001948 251.5621 108.5327 14.98331804 51670,6950.187,96.107,573.406,570.698,0.0
55273.0,STARLINK-5291,PAYLOAD,2023-12-24 21:17:25,14.98329231,0.0001988,70.0006,276.204,247.4221,112.6728,3.899e-05,3.72e-06,0.0,0 STARLINK-5291,1 55273U 23010E   23358.88709881  .00000372  00000-0  38990-4 0  9993,2 55273  70.0006 276.2040 0001988 247.4221 112.6728 14.98329231 52080,6950.195,96.107,573.442,570.679,0.0
55273.0,STARLINK-5291,PAYLOAD,2023-12-25 03:41:57,14.98330703,0.0001983,70.0004,275.5311,245.2188,114.8765,4.0594e-05,3.92e-06,0.0,0 STARLINK-5291,1 55273U 23010E   23359.15413769  .00000392  00000-0  40594-4 0  9996,2 55273  70.0004 275.5311 0001983 245.2188 114.8765 14.98330703 51815,6950.191,96.107,573.434,570.677,0.0
55273.0,STARLINK-5291,PAYLOAD,2023-12-25 19:43:18,14.98325769,0.000208,70.0004,273.8494,248.3408,111.7529,-6.8876e-05,-9.14e-06,0.0,0 STARLINK-5291,1 55273U 23010E   23359.82174488 -.00000914  00000-0 -68876-4 0  9997,2 55273  70.0004 273.8494 0002080 248.3408 111.7529 14.98325769 51917,6950.206,96.107,573.517,570.625,0.0
55273.0,STARLINK-5291,PAYLOAD,2023-12-25 21:19:26,14.98325179,0.0002037,70.0005,273.6811,235.5147,124.582,-5.2983e-05,-7.25e-06,0.0,0 STARLINK-5291,1 55273U 23010E   23359.88850457 -.00000725  00000-0 -52983-4 0  9992,2 55273  70.0005 273.6811 0002037 235.5147 124.5820 14.98325179 52236,6950.208,96.107,573.489,570.657,0.0
55273.0,STARLINK-5291,PAYLOAD,2023-12-26 05:20:07,14.98326359,0.0002059,70.0003,272.8389,237.9285,122.1674,-6.4149e-05,-8.58e-06,0.0,0 STARLINK-5291,1 55273U 23010E   23360.22230468 -.00000858  00000-0 -64149-4 0  9990,2 55273  70.0003 272.8389 0002059 237.9285 122.1674 14.98326359 52285,6950.204,96.107,573.5,570.638,0.0
55273.0,STARLINK-5291,PAYLOAD,2023-12-26 19:45:19,14.98330586,0.0002166,69.9998,271.3235,241.3522,118.742,2.2944e-06,-6.6e-07,0.0,0 STARLINK-5291,1 55273U 23010E   23360.82313883 -.00000066  00000-0  22944-5 0  9997,2 55273  69.9998 271.3235 0002166 241.3522 118.7420 14.98330586 52064,6950.191,96.107,573.561,570.551,0.0
55273.0,STARLINK-5291,PAYLOAD,2023-12-26 22:57:35,14.98331407,0.0002138,69.9998,270.9871,243.0091,117.085,1.2861e-05,6.1e-07,0.0,0 STARLINK-5291,1 55273U 23010E   23360.95665804  .00000061  00000-0  12861-4 0  9994,2 55273  69.9998 270.9871 0002138 243.0091 117.0850 14.98331407 52392,6950.189,96.107,573.539,570.568,0.0
55273.0,STARLINK-5291,PAYLOAD,2023-12-27 03:45:59,14.98332547,0.0002066,69.9998,270.482,245.9938,114.1005,8.9023e-06,1.3e-07,0.0,0 STARLINK-5291,1 55273U 23010E   23361.15693741  .00000013  00000-0  89023-5 0  9990,2 55273  69.9998 270.4820 0002066 245.9938 114.1005 14.98332547 52422,6950.185,96.107,573.486,570.614,0.0
55273.0,STARLINK-5291,PAYLOAD,2023-12-27 19:47:20,14.98326769,0.0002198,69.9996,268.7986,246.5168,113.576,4.9835e-05,5.02e-06,0.0,0 STARLINK-5291,1 55273U 23010E   23361.82453992  .00000502  00000-0  49835-4 0  9995,2 55273  69.9996 268.7986 0002198 246.5168 113.5760 14.98326769 52218,6950.203,96.107,573.596,570.54,0.0
55273.0,STARLINK-5291,PAYLOAD,2023-12-27 21:23:28,14.98326614,0.0002199,69.9996,268.6304,246.5063,113.5865,4.6373e-05,4.6e-06,0.0,0 STARLINK-5291,1 55273U 23010E   23361.89130016  .00000460  00000-0  46373-4 0  9998,2 55273  69.9996 268.6304 0002199 246.5063 113.5865 14.98326614 52536,6950.203,96.107,573.597,570.54,0.0
55273.0,STARLINK-5291,PAYLOAD,2023-12-28 03:48:00,14.98325863,0.0002135,69.9995,267.9561,262.8634,97.2282,7.0111e-05,7.44e-06,0.0,0 STARLINK-5291,1 55273U 23010E   23362.15834133  .00000744  00000-0  70111-4 0  9991,2 55273  69.9995 267.9561 0002135 262.8634  97.2282 14.98325863 52577,6950.206,96.107,573.555,570.587,0.0
55273.0,STARLINK-5291,PAYLOAD,2023-12-28 19:49:21,14.98331875,0.0002217,69.9996,266.2728,261.0233,99.0675,1.8804e-06,-7e-07,0.0,0 STARLINK-5291,1 55273U 23010E   23362.82593858 -.00000070  00000-0  18804-5 0  9996,2 55273  69.9996 266.2728 0002217 261.0233  99.0675 14.98331875 52365,6950.187,96.107,573.593,570.511,0.0
55273.0,STARLINK-5291,PAYLOAD,2023-12-28 21:25:29,14.98332071,0.0002285,69.9995,266.1058,258.4957,101.5945,-5.4504e-06,-1.58e-06,0.0,0 STARLINK-5291,1 55273U 23010E   23362.89269833 -.00000158  00000-0 -54504-5 0  9991,2 55273  69.9995 266.1058 0002285 258.4957 101.5945 14.98332071 52680,6950.186,96.107,573.64,570.463,0.0
55273.0,STARLINK-5291,PAYLOAD,2023-12-29 03:50:01,14.98333862,0.0002188,69.9991,265.4312,265.506,94.5849,3.4164e-05,3.15e-06,0.0,0 STARLINK-5291,1 55273U 23010E   23363.15973589  .00000315  00000-0  34164-4 0  9993,2 55273  69.9991 265.4312 0002188 265.5060  94.5849 14.98333862 52725,6950.181,96.107,573.567,570.525,0.0
55273.0,STARLINK-5291,PAYLOAD,2023-12-29 19:51:21,14.983296,0.0001993,69.9995,263.7471,263.4317,96.6616,5.4558e-05,5.58e-06,0.0,0 STARLINK-5291,1 55273U 23010E   23363.82733657  .00000558  00000-0  54558-4 0  9995,2 55273  69.9995 263.7471 0001993 263.4317  96.6616 14.98329600 52518,6950.194,96.107,573.444,570.674,0.0
55273.0,STARLINK-5291,PAYLOAD,2023-12-29 21:27:29,14.98329457,0.0002183,69.9995,263.5787,270.8933,89.1975,5.4394e-05,5.56e-06,0.0,0 STARLINK-5291,1 55273U 23010E   23363.89409669  .00000556  00000-0  54394-4 0  9991,2 55273  69.9995 263.5787 0002183 270.8933  89.1975 14.98329457 52834,6950.195,96.107,573.577,570.542,0.0
55273.0,STARLINK-5291,PAYLOAD,2023-12-30 03:52:01,14.98332085,0.0002045,69.9993,262.9051,265.655,94.4375,7.0851e-05,7.53e-06,0.0,0 STARLINK-5291,1 55273U 23010E   23364.16113421  .00000753  00000-0  70851-4 0  9995,2 55273  69.9993 262.9051 0002045 265.6550  94.4375 14.98332085 52871,6950.186,96.107,573.473,570.63,0.0
55273.0,STARLINK-5291,PAYLOAD,2023-12-30 19:53:20,14.98353684,0.0003092,69.9984,261.2192,291.4147,68.6682,0.00022541,2.599e-05,0.0,0 STARLINK-5291,1 55273U 23010E   23364.82870810  .00002599  00000-0  22541-3 0  9992,2 55273  69.9984 261.2192 0003092 291.4147  68.6682 14.98353684 52660,6950.12,96.105,574.134,569.836,0.0
55273.0,STARLINK-5291,PAYLOAD,2023-12-30 21:29:28,14.98355758,0.0002339,69.9995,261.0524,277.8038,82.2855,0.00022634,2.61e-05,0.0,0 STARLINK-5291,1 55273U 23010E   23364.89546556  .00002610  00000-0  22634-3 0  9993,2 55273  69.9995 261.0524 0002339 277.8038  82.2855 14.98355758 52982,6950.113,96.105,573.604,570.353,0.0
55273.0,STARLINK-5291,PAYLOAD,2023-12-31 03:54:02,14.98326312,0.0002524,69.9982,260.3799,269.9851,90.1019,-0.00014268,-1.795e-05,0.0,0 STARLINK-5291,1 55273U 23010E   23365.16253241 -.00001795  00000-0 -14268-3 0  9999,2 55273  69.9982 260.3799 0002524 269.9851  90.1019 14.98326312 52710,6950.204,96.107,573.824,570.315,0.0
55273.0,STARLINK-5291,PAYLOAD,2023-12-31 21:31:32,14.98320347,0.0002163,69.999,258.5287,261.9232,98.1682,-0.00015363,-1.925e-05,0.0,0 STARLINK-5291,1 55273U 23010E   23365.89689953 -.00001925  00000-0 -15363-3 0  9994,2 55273  69.9990 258.5287 0002163 261.9232  98.1682 14.98320347 53137,6950.223,96.108,573.591,570.584,0.0
55273.0,STARLINK-5291,PAYLOAD,2024-01-01 02:19:56,14.98320573,0.0002164,69.999,258.0238,261.8784,98.2129,-0.00014425,-1.813e-05,0.0,0 STARLINK-5291,1 55273U 23010E   24001.09718006 -.00001813  00000-0 -14425-3 0  9990,2 55273  69.9990 258.0238 0002164 261.8784  98.2129 14.98320573 53161,6950.222,96.108,573.591,570.583,0.0
55273.0,STARLINK-5291,PAYLOAD,2024-01-01 19:57:23,14.98343644,0.0002497,69.9985,256.1711,268.4501,91.6372,-0.00026254,-3.225e-05,0.0,0 STARLINK-5291,1 55273U 23010E   24001.83152751 -.00003225  00000-0 -26254-3 0  9993,2 55273  69.9985 256.1711 0002497 268.4501  91.6372 14.98343644 52967,6950.151,96.106,573.751,570.28,0.0
55273.0,STARLINK-5291,PAYLOAD,2024-01-01 21:33:31,14.98359506,0.0002296,69.9984,256.0028,268.6508,91.4388,-0.00052743,-6.385e-05,0.0,0 STARLINK-5291,1 55273U 23010E   24001.89828539 -.00006385  00000-0 -52743-3 0  9995,2 55273  69.9984 256.0028 0002296 268.6508  91.4388 14.98359506 53287,6950.102,96.105,573.562,570.371,0.0
55273.0,STARLINK-5291,PAYLOAD,2024-01-02 02:21:55,14.98358567,0.0002235,69.9985,255.4982,268.6878,91.4025,-0.00044193,-5.366e-05,0.0,0 STARLINK-5291,1 55273U 23010E   24002.09856094 -.00005366  00000-0 -44193-3 0  9993,2 55273  69.9985 255.4982 0002235 268.6878  91.4025 14.98358567 53007,6950.105,96.105,573.523,570.416,0.0
55273.0,STARLINK-5291,PAYLOAD,2024-01-02 18:23:17,14.98323235,0.0002361,69.9984,253.8148,267.2824,92.8065,0.00012314,1.376e-05,0.0,0 STARLINK-5291,1 55273U 23010E   24002.76617154  .00001376  00000-0  12314-3 0  9994,2 55273  69.9984 253.8148 0002361 267.2824  92.8065 14.98323235 53102,6950.214,96.107,573.72,570.438,0.0
55273.0,STARLINK-5291,PAYLOAD,2024-01-02 21:35:33,14.98323732,0.0002359,69.9984,253.4781,267.2091,92.8798,0.00012281,1.372e-05,0.0,0 STARLINK-5291,1 55273U 23010E   24002.89969168  .00001372  00000-0  12281-3 0  9992,2 55273  69.9984 253.4781 0002359 267.2091  92.8798 14.98323732 53435,6950.212,96.107,573.717,570.438,0.0
55273.0,STARLINK-5291,PAYLOAD,2024-01-03 02:23:57,14.98326918,0.0002366,69.9984,252.9731,268.7446,91.3442,0.00014709,1.662e-05,0.0,0 STARLINK-5291,1 55273U 23010E   24003.09996945  .00001662  00000-0  14709-3 0  9997,2 55273  69.9984 252.9731 0002366 268.7446  91.3442 14.98326918 53464,6950.202,96.107,573.712,570.423,0.0
